{
  "type": "FeatureCollection",
  "features": [
    {
      "type": "Feature",
      "properties": {
        "norad_id": 37867,
        "name": "COSMOS 2476 (744)",
        "group": "glo-ops",
        "lat": -29.01376223885575,
        "lon": -86.25353714984347,
        "alt_km": 19076.266065355456,
        "timestamp": "2025-12-21T09:37:22.915598+00:00",
        "meta_object_name": "COSMOS 2476 (744)",
        "meta_object_id": "2011-064A",
        "meta_epoch": "2025-12-19T06:05:26.552256",
        "meta_mean_motion": 2.13103916,
        "meta_eccentricity": 0.0024321,
        "meta_inclination": 65.1662,
        "meta_ra_of_asc_node": 78.9509,
        "meta_arg_of_pericenter": 234.6548,
        "meta_mean_anomaly": 130.4776,
        "meta_ephemeris_type": 0,
        "meta_classification_type": "U",
        "meta_norad_cat_id": 37867,
        "meta_element_set_no": 999,
        "meta_rev_at_epoch": 10993,
        "meta_bstar": 0,
        "meta_mean_motion_dot": -3e-07,
        "meta_mean_motion_ddot": 0,
        "tle_line1": "1 37867U 11064A   25353.25377954 -.00000030  00000+0  00000+0 0  9995",
        "tle_line2": "2 37867  65.1662  78.9509 0024321 234.6548 130.4776  2.13103916109937"
      },
      "geometry": {
        "type": "Point",
        "coordinates": [
          -86.25353714984347,
          -29.01376223885575
        ]
      }
    },
    {
      "type": "Feature",
      "properties": {
        "norad_id": 37868,
        "name": "COSMOS 2477 (745)",
        "group": "glo-ops",
        "lat": 29.930330449431814,
        "lon": 94.39873771722952,
        "alt_km": 19177.10693981022,
        "timestamp": "2025-12-21T09:37:22.915625+00:00",
        "meta_object_name": "COSMOS 2477 (745)",
        "meta_object_id": "2011-064B",
        "meta_epoch": "2025-12-21T01:57:05.668704",
        "meta_mean_motion": 2.13102963,
        "meta_eccentricity": 0.002139,
        "meta_inclination": 65.1733,
        "meta_ra_of_asc_node": 78.9666,
        "meta_arg_of_pericenter": 235.2329,
        "meta_mean_anomaly": 272.8315,
        "meta_ephemeris_type": 0,
        "meta_classification_type": "U",
        "meta_norad_cat_id": 37868,
        "meta_element_set_no": 999,
        "meta_rev_at_epoch": 10996,
        "meta_bstar": 0,
        "meta_mean_motion_dot": -1.2e-07,
        "meta_mean_motion_ddot": 0,
        "tle_line1": "1 37868U 11064B   25355.08131561 -.00000012  00000+0  00000+0 0  9991",
        "tle_line2": "2 37868  65.1733  78.9666 0021390 235.2329 272.8315  2.13102963109962"
      },
      "geometry": {
        "type": "Point",
        "coordinates": [
          94.39873771722952,
          29.930330449431814
        ]
      }
    },
    {
      "type": "Feature",
      "properties": {
        "norad_id": 37869,
        "name": "COSMOS 2475 (743)",
        "group": "glo-ops",
        "lat": -9.567043225653054,
        "lon": 74.52376968687688,
        "alt_km": 19144.087027117548,
        "timestamp": "2025-12-21T09:37:22.915637+00:00",
        "meta_object_name": "COSMOS 2475 (743)",
        "meta_object_id": "2011-064C",
        "meta_epoch": "2025-12-19T14:11:24.597888",
        "meta_mean_motion": 2.13101629,
        "meta_eccentricity": 0.0026449,
        "meta_inclination": 65.1796,
        "meta_ra_of_asc_node": 79.0372,
        "meta_arg_of_pericenter": 248.8375,
        "meta_mean_anomaly": 152.0175,
        "meta_ephemeris_type": 0,
        "meta_classification_type": "U",
        "meta_norad_cat_id": 37869,
        "meta_element_set_no": 999,
        "meta_rev_at_epoch": 10994,
        "meta_bstar": 0,
        "meta_mean_motion_dot": -2.6e-07,
        "meta_mean_motion_ddot": 0,
        "tle_line1": "1 37869U 11064C   25353.59125692 -.00000026  00000+0  00000+0 0  9999",
        "tle_line2": "2 37869  65.1796  79.0372 0026449 248.8375 152.0175  2.13101629109948"
      },
      "geometry": {
        "type": "Point",
        "coordinates": [
          74.52376968687688,
          -9.567043225653054
        ]
      }
    },
    {
      "type": "Feature",
      "properties": {
        "norad_id": 39155,
        "name": "COSMOS 2485 (747)",
        "group": "glo-ops",
        "lat": -63.79148017676088,
        "lon": -31.57320341803111,
        "alt_km": 19081.712910498012,
        "timestamp": "2025-12-21T09:37:22.915649+00:00",
        "meta_object_name": "COSMOS 2485 (747)",
        "meta_object_id": "2013-019A",
        "meta_epoch": "2025-12-20T02:56:15.241632",
        "meta_mean_motion": 2.1310322,
        "meta_eccentricity": 0.0024876,
        "meta_inclination": 65.3174,
        "meta_ra_of_asc_node": 79.6189,
        "meta_arg_of_pericenter": 230.2075,
        "meta_mean_anomaly": 129.6042,
        "meta_ephemeris_type": 0,
        "meta_classification_type": "U",
        "meta_norad_cat_id": 39155,
        "meta_element_set_no": 999,
        "meta_rev_at_epoch": 9846,
        "meta_bstar": 0,
        "meta_mean_motion_dot": -2e-07,
        "meta_mean_motion_ddot": 0,
        "tle_line1": "1 39155U 13019A   25354.12239863 -.00000020  00000+0  00000+0 0  9991",
        "tle_line2": "2 39155  65.3174  79.6189 0024876 230.2075 129.6042  2.13103220 98462"
      },
      "geometry": {
        "type": "Point",
        "coordinates": [
          -31.57320341803111,
          -63.79148017676088
        ]
      }
    },
    {
      "type": "Feature",
      "properties": {
        "norad_id": 39620,
        "name": "COSMOS 2492 (754)",
        "group": "glo-ops",
        "lat": -57.16049301836352,
        "lon": -85.22092660138043,
        "alt_km": 19101.91083639717,
        "timestamp": "2025-12-21T09:37:22.915660+00:00",
        "meta_object_name": "COSMOS 2492 (754)",
        "meta_object_id": "2014-012A",
        "meta_epoch": "2025-12-21T00:28:06.093408",
        "meta_mean_motion": 2.13103398,
        "meta_eccentricity": 0.0014228,
        "meta_inclination": 65.4029,
        "meta_ra_of_asc_node": 319.9893,
        "meta_arg_of_pericenter": 312.8243,
        "meta_mean_anomaly": 47.0487,
        "meta_ephemeris_type": 0,
        "meta_classification_type": "U",
        "meta_norad_cat_id": 39620,
        "meta_element_set_no": 999,
        "meta_rev_at_epoch": 9144,
        "meta_bstar": 0,
        "meta_mean_motion_dot": -4.8e-07,
        "meta_mean_motion_ddot": 0,
        "tle_line1": "1 39620U 14012A   25355.01951497 -.00000048  00000+0  00000+0 0  9995",
        "tle_line2": "2 39620  65.4029 319.9893 0014228 312.8243  47.0487  2.13103398 91448"
      },
      "geometry": {
        "type": "Point",
        "coordinates": [
          -85.22092660138043,
          -57.16049301836352
        ]
      }
    },
    {
      "type": "Feature",
      "properties": {
        "norad_id": 40001,
        "name": "COSMOS 2500 (755)",
        "group": "glo-ops",
        "lat": 17.62679639470319,
        "lon": 131.33132223643844,
        "alt_km": 19117.57329190351,
        "timestamp": "2025-12-21T09:37:22.915672+00:00",
        "meta_object_name": "COSMOS 2500 (755)",
        "meta_object_id": "2014-032A",
        "meta_epoch": "2025-12-20T06:04:27.939360",
        "meta_mean_motion": 2.13106249,
        "meta_eccentricity": 0.00077498,
        "meta_inclination": 65.339,
        "meta_ra_of_asc_node": 319.7771,
        "meta_arg_of_pericenter": 219.4032,
        "meta_mean_anomaly": 140.5324,
        "meta_ephemeris_type": 0,
        "meta_classification_type": "U",
        "meta_norad_cat_id": 40001,
        "meta_element_set_no": 999,
        "meta_rev_at_epoch": 8964,
        "meta_bstar": 0,
        "meta_mean_motion_dot": -5.3e-07,
        "meta_mean_motion_ddot": 0,
        "tle_line1": "1 40001U 14032A   25354.25310115 -.00000053  00000+0  00000+0 0  9999",
        "tle_line2": "2 40001  65.3390 319.7771 0007749 219.4032 140.5324  2.13106249 89640"
      },
      "geometry": {
        "type": "Point",
        "coordinates": [
          131.33132223643844,
          17.62679639470319
        ]
      }
    },
    {
      "type": "Feature",
      "properties": {
        "norad_id": 40315,
        "name": "COSMOS 2501 (702K)",
        "group": "glo-ops",
        "lat": -33.99228509273073,
        "lon": 176.96169142453914,
        "alt_km": 19157.705605872656,
        "timestamp": "2025-12-21T09:37:22.915683+00:00",
        "meta_object_name": "COSMOS 2501 (702K)",
        "meta_object_id": "2014-075A",
        "meta_epoch": "2025-12-19T02:31:27.452640",
        "meta_mean_motion": 2.13101513,
        "meta_eccentricity": 0.0020099,
        "meta_inclination": 63.6146,
        "meta_ra_of_asc_node": 196.6046,
        "meta_arg_of_pericenter": 204.1838,
        "meta_mean_anomaly": 155.7988,
        "meta_ephemeris_type": 0,
        "meta_classification_type": "U",
        "meta_norad_cat_id": 40315,
        "meta_element_set_no": 999,
        "meta_rev_at_epoch": 8601,
        "meta_bstar": 0,
        "meta_mean_motion_dot": 1.06e-06,
        "meta_mean_motion_ddot": 0,
        "tle_line1": "1 40315U 14075A   25353.10517885  .00000106  00000+0  00000+0 0  9998",
        "tle_line2": "2 40315  63.6146 196.6046 0020099 204.1838 155.7988  2.13101513 86014"
      },
      "geometry": {
        "type": "Point",
        "coordinates": [
          176.96169142453914,
          -33.99228509273073
        ]
      }
    }
  ]
}